NORAD_CAT_ID,OBJECT_NAME,OBJECT_TYPE,EPOCH,MEAN_MOTION,ECCENTRICITY,INCLINATION,RA_OF_ASC_NODE,ARG_OF_PERICENTER,MEAN_ANOMALY,BSTAR,MEAN_MOTION_DOT,MEAN_MOTION_DDOT,TLE_LINE0,TLE_LINE1,TLE_LINE2,SEMIMAJOR_AXIS,PERIOD,APOGEE,PERIGEE,DECAYED
56449.0,STARLINK-5993,PAYLOAD,2023-11-01 07:19:02,14.98301174,0.0002907,70.0,151.4721,290.3565,69.7282,0.0004899,5.753e-05,0.0,0 STARLINK-5993,1 56449U 23064B   23305.30489112  .00005753  00000-0  48990-3 0  9997,2 56449  70.0000 151.4721 0002907 290.3565  69.7282 14.98301174 26871,6950.282,96.109,574.167,570.127,0.0
56449.0,STARLINK-5993,PAYLOAD,2023-11-01 13:43:34,14.98328556,0.0002919,69.9995,150.7988,283.5323,76.5511,-2.8943e-05,-4.38e-06,0.0,0 STARLINK-5993,1 56449U 23064B   23305.57192430 -.00000438  00000-0 -28943-4 0  9994,2 56449  69.9995 150.7988 0002919 283.5323  76.5511 14.98328556 26556,6950.197,96.107,574.091,570.034,0.0
56449.0,STARLINK-5993,PAYLOAD,2023-11-01 20:08:06,14.98330934,0.0002906,69.9996,150.1247,282.3678,77.7155,-2.4804e-06,-1.23e-06,0.0,0 STARLINK-5993,1 56449U 23064B   23305.83896176 -.00000123  00000-0 -24804-5 0  9995,2 56449  69.9996 150.1247 0002906 282.3678  77.7155 14.98330934 26959,6950.19,96.107,574.075,570.035,0.0
56449.0,STARLINK-5993,PAYLOAD,2023-11-01 21:44:14,14.98331792,0.0002902,69.9995,149.9562,282.6929,77.3906,2.4651e-06,-6.4e-07,0.0,0 STARLINK-5993,1 56449U 23064B   23305.90572102 -.00000064  00000-0  24651-5 0  9996,2 56449  69.9995 149.9562 0002902 282.6929  77.3906 14.98331792 26607,6950.187,96.107,574.069,570.035,0.0
56449.0,STARLINK-5993,PAYLOAD,2023-11-02 07:21:02,14.9833118,0.0002897,69.9995,148.9459,282.1383,77.9451,-6.2397e-06,-1.67e-06,0.0,0 STARLINK-5993,1 56449U 23064B   23306.30628098 -.00000167  00000-0 -62397-5 0  9991,2 56449  69.9995 148.9459 0002897 282.1383  77.9451 14.98331180 26661,6950.189,96.107,574.068,570.041,0.0
56449.0,STARLINK-5993,PAYLOAD,2023-11-02 20:10:07,14.98331535,0.0002926,69.9992,147.6,269.9711,90.1112,6.2418e-06,-1.9e-07,0.0,0 STARLINK-5993,1 56449U 23064B   23306.84035921 -.00000019  00000-0  62418-5 0  9996,2 56449  69.9992 147.6000 0002926 269.9711  90.1112 14.98331535 27102,6950.188,96.107,574.087,570.02,0.0
56449.0,STARLINK-5993,PAYLOAD,2023-11-02 21:46:15,14.98330985,0.0002828,69.9993,147.4316,267.0005,93.0831,2.2316e-05,1.73e-06,0.0,0 STARLINK-5993,1 56449U 23064B   23306.90711902  .00000173  00000-0  22316-4 0  9995,2 56449  69.9993 147.4316 0002828 267.0005  93.0831 14.98330985 26755,6950.19,96.107,574.02,570.089,0.0
56449.0,STARLINK-5993,PAYLOAD,2023-11-02 23:22:22,14.9835181,0.0003001,69.9992,147.2633,268.4612,91.6203,-0.00031624,-3.866e-05,0.0,0 STARLINK-5993,1 56449U 23064B   23306.97387328 -.00003866  00000-0 -31624-3 0  9998,2 56449  69.9992 147.2633 0003001 268.4612  91.6203 14.98351810 27126,6950.125,96.106,574.076,569.905,0.0
56449.0,STARLINK-5993,PAYLOAD,2023-11-03 07:23:03,14.98337264,0.0002855,69.9993,146.4216,270.0901,89.993,-0.0001443,-1.815e-05,0.0,0 STARLINK-5993,1 56449U 23064B   23307.30767849 -.00001815  00000-0 -14430-3 0  9994,2 56449  69.9993 146.4216 0002855 270.0901  89.9930 14.98337264 27170,6950.17,96.107,574.02,570.051,0.0
56449.0,STARLINK-5993,PAYLOAD,2023-11-03 13:47:35,14.98328341,0.0002914,69.9992,145.7483,270.209,89.8735,1.2258e-05,5.3e-07,0.0,0 STARLINK-5993,1 56449U 23064B   23307.57472049  .00000053  00000-0  12258-4 0  9996,2 56449  69.9992 145.7483 0002914 270.2090  89.8735 14.98328341 26856,6950.198,96.107,574.088,570.038,0.0
56449.0,STARLINK-5993,PAYLOAD,2023-11-03 21:48:16,14.98330942,0.0002921,69.9992,144.9068,270.7159,89.3666,-1.1494e-05,-2.3e-06,0.0,0 STARLINK-5993,1 56449U 23064B   23307.90851944 -.00000230  00000-0 -11494-4 0  9998,2 56449  69.9992 144.9068 0002921 270.7159  89.3666 14.98330942 26909,6950.19,96.107,574.085,570.025,0.0
56449.0,STARLINK-5993,PAYLOAD,2023-11-04 13:49:36,14.98331159,0.0002869,69.9993,143.2236,271.35,88.733,-2.7088e-06,-1.25e-06,0.0,0 STARLINK-5993,1 56449U 23064B   23308.57611884 -.00000125  00000-0 -27088-5 0  9999,2 56449  69.9993 143.2236 0002869 271.3500  88.7330 14.98331159 27001,6950.189,96.107,574.048,570.06,0.0
56449.0,STARLINK-5993,PAYLOAD,2023-11-04 20:14:08,14.98317917,0.0003094,69.9994,142.5503,279.0863,80.9946,0.00025728,2.977e-05,0.0,0 STARLINK-5993,1 56449U 23064B   23308.84315967  .00002977  00000-0  25728-3 0  9994,2 56449  69.9994 142.5503 0003094 279.0863  80.9946 14.98317917 27406,6950.23,96.108,574.246,569.945,0.0
56449.0,STARLINK-5993,PAYLOAD,2023-11-04 21:50:16,14.98332325,0.0002858,69.9993,142.3819,271.462,88.6212,1.4114e-05,7.5e-07,0.0,0 STARLINK-5993,1 56449U 23064B   23308.90991723  .00000075  00000-0  14114-4 0  9996,2 56449  69.9993 142.3819 0002858 271.4620  88.6212 14.98332325 27059,6950.186,96.107,574.037,570.064,0.0
56449.0,STARLINK-5993,PAYLOAD,2023-11-04 23:26:25,14.98305282,0.0002937,69.9993,142.2137,277.5744,82.5081,0.00044646,5.235e-05,0.0,0 STARLINK-5993,1 56449U 23064B   23308.97668382  .00005235  00000-0  44646-3 0  9990,2 56449  69.9993 142.2137 0002937 277.5744  82.5081 14.98305282 27423,6950.269,96.109,574.176,570.093,0.0
56449.0,STARLINK-5993,PAYLOAD,2023-11-05 05:50:57,14.9833239,0.0002858,69.9993,141.5404,271.8281,88.255,2.523e-05,2.08e-06,0.0,0 STARLINK-5993,1 56449U 23064B   23309.24371647  .00000208  00000-0  25230-4 0  9990,2 56449  69.9993 141.5404 0002858 271.8281  88.2550 14.98332390 27465,6950.186,96.107,574.037,570.064,0.0
56449.0,STARLINK-5993,PAYLOAD,2023-11-05 13:51:37,14.98333812,0.0002862,69.9992,140.6988,272.0728,88.0103,4.8793e-05,4.89e-06,0.0,0 STARLINK-5993,1 56449U 23064B   23309.57751421  .00000489  00000-0  48793-4 0  9998,2 56449  69.9992 140.6988 0002862 272.0728  88.0103 14.98333812 27153,6950.181,96.107,574.035,570.057,0.0
56449.0,STARLINK-5993,PAYLOAD,2023-11-05 21:52:17,14.98337012,0.0002899,69.9985,139.8569,272.3764,87.7063,7.686e-05,8.24e-06,0.0,0 STARLINK-5993,1 56449U 23064B   23309.91131034  .00000824  00000-0  76860-4 0  9997,2 56449  69.9985 139.8569 0002899 272.3764  87.7063 14.98337012 27206,6950.171,96.107,574.051,570.021,0.0
56449.0,STARLINK-5993,PAYLOAD,2023-11-06 12:17:30,14.98334263,0.0002798,69.9986,138.3414,273.6651,86.4188,-6.9307e-06,-1.76e-06,0.0,0 STARLINK-5993,1 56449U 23064B   23310.51215278 -.00000176  00000-0 -69307-5 0  9999,2 56449  69.9986 138.3414 0002798 273.6651  86.4188 14.98334263 27655,6950.18,96.107,573.989,570.1,0.0
56449.0,STARLINK-5993,PAYLOAD,2023-11-06 13:53:38,14.98330472,0.0002444,69.9982,138.1741,265.472,94.616,3.402e-05,3.13e-06,0.0,0 STARLINK-5993,1 56449U 23064B   23310.57891327  .00000313  00000-0  34020-4 0  9994,2 56449  69.9982 138.1741 0002444 265.4720  94.6160 14.98330472 27307,6950.191,96.107,573.755,570.358,0.0
56449.0,STARLINK-5993,PAYLOAD,2023-11-06 21:54:18,14.98329327,0.0002511,69.9985,137.3326,265.3445,94.7427,1.0045e-05,2.7e-07,0.0,0 STARLINK-5993,1 56449U 23064B   23310.91271422  .00000027  00000-0  10045-4 0  9993,2 56449  69.9985 137.3326 0002511 265.3445  94.7427 14.98329327 27357,6950.195,96.107,573.805,570.315,0.0
56449.0,STARLINK-5993,PAYLOAD,2023-11-07 12:19:31,14.98330252,0.0002572,69.9987,135.8176,270.3821,89.7043,-0.00014946,-1.876e-05,0.0,0 STARLINK-5993,1 56449U 23064B   23311.51355851 -.00001876  00000-0 -14946-3 0  9997,2 56449  69.9987 135.8176 0002572 270.3821  89.7043 14.98330252 27803,6950.192,96.107,573.845,570.27,0.0
56449.0,STARLINK-5993,PAYLOAD,2023-11-07 13:55:39,14.98327326,0.0002702,69.9989,135.6494,269.6618,90.4231,-0.00010415,-1.335e-05,0.0,0 STARLINK-5993,1 56449U 23064B   23311.58031876 -.00001335  00000-0 -10415-3 0  9999,2 56449  69.9989 135.6494 0002702 269.6618  90.4231 14.98327326 27453,6950.201,96.107,573.944,570.188,0.0
56449.0,STARLINK-5993,PAYLOAD,2023-11-07 20:20:12,14.98322178,0.0002574,69.9993,134.9759,261.4041,98.6826,-0.00011727,-1.492e-05,0.0,0 STARLINK-5993,1 56449U 23064B   23311.84736265 -.00001492  00000-0 -11727-3 0  9993,2 56449  69.9993 134.9759 0002574 261.4041  98.6826 14.98322178 27855,6950.217,96.108,573.871,570.293,0.0
56449.0,STARLINK-5993,PAYLOAD,2023-11-08 13:57:40,14.98324468,0.0002972,69.9989,133.1242,269.5459,90.5359,-2.2727e-05,-3.64e-06,0.0,0 STARLINK-5993,1 56449U 23064B   23312.58172040 -.00000364  00000-0 -22727-4 0  9990,2 56449  69.9989 133.1242 0002972 269.5459  90.5359 14.98324468 27601,6950.21,96.107,574.141,570.009,0.0
56449.0,STARLINK-5993,PAYLOAD,2023-11-08 18:46:04,14.98326834,0.0003028,69.9989,132.619,269.7292,90.352,-2.9774e-05,-4.48e-06,0.0,0 STARLINK-5993,1 56449U 23064B   23312.78199969 -.00000448  00000-0 -29774-4 0  9993,2 56449  69.9989 132.6190 0003028 269.7292  90.3520 14.98326834 27996,6950.203,96.107,574.172,569.963,0.0
56449.0,STARLINK-5993,PAYLOAD,2023-11-08 21:58:20,14.9832716,0.000301,69.9989,132.2823,269.7877,90.2937,-1.448e-05,-2.66e-06,0.0,0 STARLINK-5993,1 56449U 23064B   23312.91551944 -.00000266  00000-0 -14480-4 0  9999,2 56449  69.9989 132.2823 0003010 269.7877  90.2937 14.98327160 27652,6950.202,96.107,574.159,569.975,0.0
56449.0,STARLINK-5993,PAYLOAD,2023-11-09 13:59:41,14.98327911,0.0002999,69.9988,130.599,268.8282,91.2533,8.5736e-05,9.3e-06,0.0,0 STARLINK-5993,1 56449U 23064B   23313.58311788  .00000930  00000-0  85736-4 0  9991,2 56449  69.9988 130.5990 0002999 268.8282  91.2533 14.98327911 27750,6950.199,96.107,574.149,569.98,0.0
56449.0,STARLINK-5993,PAYLOAD,2023-11-09 20:24:13,14.9832813,0.0003025,69.9989,129.9258,269.3506,90.7306,0.00010291,1.135e-05,0.0,0 STARLINK-5993,1 56449U 23064B   23313.85015759  .00001135  00000-0  10291-3 0  9991,2 56449  69.9989 129.9258 0003025 269.3506  90.7306 14.98328130 28157,6950.199,96.107,574.166,569.961,0.0
56449.0,STARLINK-5993,PAYLOAD,2023-11-09 22:00:21,14.9832837,0.0003024,69.9989,129.7575,269.3676,90.7137,0.00010336,1.14e-05,0.0,0 STARLINK-5993,1 56449U 23064B   23313.91691750  .00001140  00000-0  10336-3 0  9995,2 56449  69.9989 129.7575 0003024 269.3676  90.7137 14.98328370 27803,6950.198,96.107,574.165,569.961,0.0
